STARLINK-4032           
1 52688U 22053AJ  26068.52285624 -.00000145  00000+0  89934-5 0  9995
2 52688  53.2175 144.7569 0001311  92.8104 267.3038 15.08838305211093
2023-069B               
1 56732U 23069B   26068.54706144  .00006772  00000+0  42420-3 0  9992
2 56732  41.0081 274.4606 0011652 279.7432  80.2064 15.09579619155167
